[{"OBJECT_NAME":"STARLINK-5044","OBJECT_ID":"2022-119N","EPOCH":"2026-03-09T22:07:50.755872","MEAN_MOTION":15.08833709,"ECCENTRICITY":0.00012508,"INCLINATION":53.2189,"RA_OF_ASC_NODE":322.7953,"ARG_OF_PERICENTER":89.0738,"MEAN_ANOMALY":271.0397,"EPHEMERIS_TYPE":0,"CLASSIFICATION_TYPE":"U","NORAD_CAT_ID":53898,"ELEMENT_SET_NO":999,"REV_AT_EPOCH":19172,"BSTAR":-2.937456e-6,"MEAN_MOTION_DOT":-3.35e-6,"MEAN_MOTION_DDOT":0},{"OBJECT_NAME":"SL-19 R\/B","OBJECT_ID":"2009-059D","EPOCH":"2026-03-09T23:12:06.356736","MEAN_MOTION":14.95113684,"ECCENTRICITY":0.01234897,"INCLINATION":98.3546,"RA_OF_ASC_NODE":329.2242,"ARG_OF_PERICENTER":331.1085,"MEAN_ANOMALY":28.3333,"EPHEMERIS_TYPE":0,"CLASSIFICATION_TYPE":"U","NORAD_CAT_ID":36039,"ELEMENT_SET_NO":999,"REV_AT_EPOCH":88779,"BSTAR":0.00015970397,"MEAN_MOTION_DOT":1.961e-5,"MEAN_MOTION_DDOT":0}]
